[{"OBJECT_NAME":"ONEWEB-0013","OBJECT_ID":"2020-008A","EPOCH":"2026-03-09T12:43:10.005888","MEAN_MOTION":13.09451006,"ECCENTRICITY":8.307e-5,"INCLINATION":87.8442,"RA_OF_ASC_NODE":72.942,"ARG_OF_PERICENTER":88.0516,"MEAN_ANOMALY":272.0706,"EPHEMERIS_TYPE":0,"CLASSIFICATION_TYPE":"U","NORAD_CAT_ID":45131,"ELEMENT_SET_NO":999,"REV_AT_EPOCH":29302,"BSTAR":0.0020204133,"MEAN_MOTION_DOT":7.09e-6,"MEAN_MOTION_DDOT":0},{"OBJECT_NAME":"OPS 4682 DEB","OBJECT_ID":"1965-027CF","EPOCH":"2026-03-08T12:09:52.073280","MEAN_MOTION":13.03265469,"ECCENTRICITY":0.00364489,"INCLINATION":90.2422,"RA_OF_ASC_NODE":337.1455,"ARG_OF_PERICENTER":90.8956,"MEAN_ANOMALY":269.6345,"EPHEMERIS_TYPE":0,"CLASSIFICATION_TYPE":"U","NORAD_CAT_ID":38378,"ELEMENT_SET_NO":999,"REV_AT_EPOCH":60589,"BSTAR":0.0042477039,"MEAN_MOTION_DOT":1.351e-5,"MEAN_MOTION_DDOT":0}]
